[{"OBJECT_NAME":"CELESTIS-17 & SHERPA-FX1","OBJECT_ID":"2021-006CB","EPOCH":"2026-03-09T15:26:05.078112","MEAN_MOTION":15.30994801,"ECCENTRICITY":0.000663,"INCLINATION":97.2397,"RA_OF_ASC_NODE":112.1052,"ARG_OF_PERICENTER":178.1385,"MEAN_ANOMALY":181.9882,"EPHEMERIS_TYPE":0,"CLASSIFICATION_TYPE":"U","NORAD_CAT_ID":47486,"ELEMENT_SET_NO":999,"REV_AT_EPOCH":28406,"BSTAR":0.00024301,"MEAN_MOTION_DOT":7.207e-5,"MEAN_MOTION_DDOT":0},{"OBJECT_NAME":"STARLINK-34363","OBJECT_ID":"2025-133AB","EPOCH":"2026-03-09T10:47:30.152256","MEAN_MOTION":15.30124969,"ECCENTRICITY":0.0001463,"INCLINATION":53.161,"RA_OF_ASC_NODE":117.7629,"ARG_OF_PERICENTER":77.999,"MEAN_ANOMALY":282.1175,"EPHEMERIS_TYPE":0,"CLASSIFICATION_TYPE":"U","NORAD_CAT_ID":64497,"ELEMENT_SET_NO":999,"REV_AT_EPOCH":4115,"BSTAR":0.00045496528,"MEAN_MOTION_DOT":0.00013108,"MEAN_MOTION_DDOT":0}]
